0 IRIDIUM 33 DEB
1 37548U 97051XH  13281.33891775  .00001289  00000-0  48905-3 0  1987
2 37548 086.3608 130.7753 0032539 001.6226 358.5248 14.30069931220404
0 IRIDIUM 33 DEB
1 37548U 97051XH  13284.34763340  .00001291  00000-0  49007-3 0  1995
2 37548 086.3602 129.5137 0032400 351.9952 008.0757 14.30077669220830
0 IRIDIUM 33 DEB
1 37548U 97051XH  13287.28636441  .00001306  00000-0  49579-3 0  2006
2 37548 086.3622 128.2826 0031037 343.4067 016.6233 14.30085714221252
0 IRIDIUM 33 DEB
1 37548U 97051XH  13290.29504924  .00001318  00000-0  50043-3 0  2013
2 37548 086.3620 127.0223 0031358 333.7657 026.1986 14.30093814221689
0 IRIDIUM 33 DEB
1 37548U 97051XH  13293.23375030  .00001397  00000-0  53032-3 0  2023
2 37548 086.3595 125.7898 0032507 325.6587 034.3148 14.30104233222109
0 IRIDIUM 33 DEB
1 37548U 97051XH  13295.26282848  .00001422  00000-0  53999-3 0  2034
2 37548 086.3610 124.9420 0033296 319.0680 040.8193 14.30110688222390
